{
  "type": "FeatureCollection",
  "features": [
    {
      "type": "Feature",
      "geometry": {
        "type": "LineString",
        "coordinates": [
          [
            -77.0428,
            -12.0464
          ],
          [
            -76.08852333333333,
            -11.691126666666667
          ],
          [
            -75.13424666666667,
            -11.335853333333333
          ],
          [
            -74.17997,
            -10.98058
          ],
          [
            -73.22569333333334,
            -10.625306666666667
          ],
          [
            -72.27141666666667,
            -10.270033333333334
          ],
          [
            -71.31714,
            -9.91476
          ],
          [
            -70.36286333333334,
            -9.559486666666666
          ],
          [
            -69.40858666666666,
            -9.204213333333334
          ],
          [
            -68.45430999999999,
            -8.84894
          ],
          [
            -67.50003333333333,
            -8.493666666666666
          ],
          [
            -66.54575666666666,
            -8.138393333333333
          ],
          [
            -65.59147999999999,
            -7.783119999999999
          ],
          [
            -64.63720333333333,
            -7.4278466666666665
          ],
          [
            -63.68292666666667,
            -7.072573333333333
          ],
          [
            -62.72865,
            -6.7173
          ],
          [
            -61.77437333333333,
            -6.362026666666667
          ],
          [
            -60.820096666666664,
            -6.006753333333333
          ],
          [
            -59.86582,
            -5.65148
          ],
          [
            -58.91154333333333,
            -5.2962066666666665
          ],
          [
            -57.95726666666667,
            -4.940933333333334
          ],
          [
            -57.00299,
            -4.58566
          ],
          [
            -56.04871333333333,
            -4.230386666666667
          ],
          [
            -55.09443666666667,
            -3.875113333333333
          ],
          [
            -54.140159999999995,
            -3.5198399999999985
          ],
          [
            -53.18588333333333,
            -3.1645666666666656
          ],
          [
            -52.231606666666664,
            -2.8092933333333328
          ],
          [
            -51.27732999999999,
            -2.45402
          ],
          [
            -50.323053333333334,
            -2.098746666666665
          ],
          [
            -49.36877666666666,
            -1.7434733333333323
          ],
          [
            -48.4145,
            -1.3881999999999994
          ]
        ]
      },
      "properties": {
        "from": "Lima, Perú",
        "to": "Ananindeua, Pará, Brasil",
        "dist_km": 3371.4
      }
    },
    {
      "type": "Feature",
      "geometry": {
        "type": "LineString",
        "coordinates": [
          [
            -77.0428,
            -12.0464
          ],
          [
            -76.09009,
            -11.692783333333333
          ],
          [
            -75.13738,
            -11.339166666666667
          ],
          [
            -74.18467,
            -10.98555
          ],
          [
            -73.23196,
            -10.631933333333334
          ],
          [
            -72.27925,
            -10.278316666666667
          ],
          [
            -71.32654,
            -9.9247
          ],
          [
            -70.37383,
            -9.571083333333334
          ],
          [
            -69.42112,
            -9.217466666666667
          ],
          [
            -68.46841,
            -8.863850000000001
          ],
          [
            -67.5157,
            -8.510233333333334
          ],
          [
            -66.56299,
            -8.156616666666668
          ],
          [
            -65.61028,
            -7.803
          ],
          [
            -64.65756999999999,
            -7.4493833333333335
          ],
          [
            -63.70486,
            -7.095766666666667
          ],
          [
            -62.75215,
            -6.7421500000000005
          ],
          [
            -61.799440000000004,
            -6.388533333333334
          ],
          [
            -60.84673,
            -6.034916666666668
          ],
          [
            -59.89402,
            -5.681300000000001
          ],
          [
            -58.94131,
            -5.327683333333335
          ],
          [
            -57.988600000000005,
            -4.974066666666667
          ],
          [
            -57.03589,
            -4.620450000000001
          ],
          [
            -56.08318,
            -4.266833333333334
          ],
          [
            -55.13047,
            -3.913216666666667
          ],
          [
            -54.17776,
            -3.5595999999999997
          ],
          [
            -53.225049999999996,
            -3.205983333333334
          ],
          [
            -52.27234,
            -2.8523666666666667
          ],
          [
            -51.319630000000004,
            -2.498750000000001
          ],
          [
            -50.36692,
            -2.145133333333334
          ],
          [
            -49.41421,
            -1.7915166666666682
          ],
          [
            -48.4615,
            -1.4379000000000008
          ]
        ]
      },
      "properties": {
        "from": "Lima, Perú",
        "to": "Belém do Pará, Brasil",
        "dist_km": 3364.5
      }
    },
    {
      "type": "Feature",
      "geometry": {
        "type": "LineString",
        "coordinates": [
          [
            -77.0428,
            -12.0464
          ],
          [
            -76.08992333333333,
            -11.69224
          ],
          [
            -75.13704666666666,
            -11.33808
          ],
          [
            -74.18417,
            -10.98392
          ],
          [
            -73.23129333333333,
            -10.629760000000001
          ],
          [
            -72.27841666666667,
            -10.2756
          ],
          [
            -71.32554,
            -9.92144
          ],
          [
            -70.37266333333334,
            -9.56728
          ],
          [
            -69.41978666666667,
            -9.21312
          ],
          [
            -68.46691,
            -8.85896
          ],
          [
            -67.51403333333333,
            -8.5048
          ],
          [
            -66.56115666666666,
            -8.15064
          ],
          [
            -65.60828,
            -7.79648
          ],
          [
            -64.65540333333334,
            -7.44232
          ],
          [
            -63.702526666666664,
            -7.08816
          ],
          [
            -62.74965,
            -6.734
          ],
          [
            -61.796773333333334,
            -6.37984
          ],
          [
            -60.843896666666666,
            -6.02568
          ],
          [
            -59.89102,
            -5.67152
          ],
          [
            -58.93814333333333,
            -5.31736
          ],
          [
            -57.98526666666667,
            -4.9632000000000005
          ],
          [
            -57.03239,
            -4.60904
          ],
          [
            -56.07951333333334,
            -4.25488
          ],
          [
            -55.12663666666666,
            -3.9007199999999997
          ],
          [
            -54.17376,
            -3.5465599999999995
          ],
          [
            -53.22088333333333,
            -3.1923999999999992
          ],
          [
            -52.268006666666665,
            -2.838239999999999
          ],
          [
            -51.315129999999996,
            -2.4840799999999987
          ],
          [
            -50.36225333333333,
            -2.1299200000000003
          ],
          [
            -49.40937666666666,
            -1.77576
          ],
          [
            -48.4565,
            -1.4215999999999998
          ]
        ]
      },
      "properties": {
        "from": "Lima, Perú",
        "to": "Belém do Pará, Brasil",
        "dist_km": 3365.7
      }
    },
    {
      "type": "Feature",
      "geometry": {
        "type": "LineString",
        "coordinates": [
          [
            -77.0428,
            -12.0464
          ],
          [
            -74.29825,
            -9.921643333333334
          ],
          [
            -71.5537,
            -7.796886666666667
          ],
          [
            -68.80915,
            -5.67213
          ],
          [
            -66.0646,
            -3.5473733333333346
          ],
          [
            -63.32005,
            -1.4226166666666682
          ],
          [
            -60.5755,
            0.70214
          ],
          [
            -57.83095,
            2.8268966666666664
          ],
          [
            -55.0864,
            4.951653333333331
          ],
          [
            -52.34185,
            7.076409999999997
          ],
          [
            -49.597300000000004,
            9.201166666666664
          ],
          [
            -46.85275,
            11.32592333333333
          ],
          [
            -44.1082,
            13.45068
          ],
          [
            -41.36365,
            15.575436666666667
          ],
          [
            -38.619099999999996,
            17.70019333333333
          ],
          [
            -35.87455,
            19.82495
          ],
          [
            -33.13,
            21.949706666666664
          ],
          [
            -30.38545,
            24.074463333333334
          ],
          [
            -27.640900000000002,
            26.199219999999997
          ],
          [
            -24.896349999999998,
            28.323976666666667
          ],
          [
            -22.1518,
            30.44873333333333
          ],
          [
            -19.407250000000005,
            32.57349
          ],
          [
            -16.6627,
            34.69824666666666
          ],
          [
            -13.918149999999997,
            36.82300333333334
          ],
          [
            -11.173599999999993,
            38.94776
          ],
          [
            -8.42904999999999,
            41.07251666666667
          ],
          [
            -5.6845,
            43.197273333333335
          ],
          [
            -2.939949999999996,
            45.322030000000005
          ],
          [
            -0.19539999999999225,
            47.44678666666667
          ],
          [
            2.5491499999999974,
            49.57154333333334
          ],
          [
            5.293700000000001,
            51.6963
          ]
        ]
      },
      "properties": {
        "from": "Lima, Perú",
        "to": "'s-Hertogenbosch, Holanda",
        "dist_km": 10536.6
      }
    },
    {
      "type": "Feature",
      "geometry": {
        "type": "LineString",
        "coordinates": [
          [
            -77.0428,
            -12.0464
          ],
          [
            -76.82939333333333,
            -12.75956
          ],
          [
            -76.61598666666667,
            -13.47272
          ],
          [
            -76.40258,
            -14.185880000000001
          ],
          [
            -76.18917333333333,
            -14.899040000000001
          ],
          [
            -75.97576666666667,
            -15.612200000000001
          ],
          [
            -75.76236,
            -16.32536
          ],
          [
            -75.54895333333333,
            -17.038520000000002
          ],
          [
            -75.33554666666667,
            -17.75168
          ],
          [
            -75.12214,
            -18.464840000000002
          ],
          [
            -74.90873333333333,
            -19.178
          ],
          [
            -74.69532666666667,
            -19.89116
          ],
          [
            -74.48192,
            -20.60432
          ],
          [
            -74.26851333333333,
            -21.317480000000003
          ],
          [
            -74.05510666666667,
            -22.030640000000002
          ],
          [
            -73.8417,
            -22.7438
          ],
          [
            -73.62829333333333,
            -23.456960000000002
          ],
          [
            -73.41488666666667,
            -24.170120000000004
          ],
          [
            -73.20148,
            -24.883280000000003
          ],
          [
            -72.98807333333333,
            -25.59644
          ],
          [
            -72.77466666666668,
            -26.309600000000003
          ],
          [
            -72.56126,
            -27.02276
          ],
          [
            -72.34785333333333,
            -27.73592
          ],
          [
            -72.13444666666668,
            -28.449080000000002
          ],
          [
            -71.92104,
            -29.162240000000004
          ],
          [
            -71.70763333333333,
            -29.875400000000006
          ],
          [
            -71.49422666666668,
            -30.58856
          ],
          [
            -71.28082,
            -31.301720000000003
          ],
          [
            -71.06741333333333,
            -32.014880000000005
          ],
          [
            -70.85400666666668,
            -32.72804000000001
          ],
          [
            -70.6406,
            -33.4412
          ]
        ]
      },
      "properties": {
        "from": "Lima, Perú",
        "to": "Santiago de Chile, Chile",
        "dist_km": 2466.4
      }
    },
    {
      "type": "Feature",
      "geometry": {
        "type": "LineString",
        "coordinates": [
          [
            -77.0428,
            -12.0464
          ],
          [
            -74.38046666666666,
            -10.245326666666667
          ],
          [
            -71.71813333333333,
            -8.444253333333334
          ],
          [
            -69.0558,
            -6.64318
          ],
          [
            -66.39346666666667,
            -4.842106666666668
          ],
          [
            -63.73113333333333,
            -3.041033333333335
          ],
          [
            -61.068799999999996,
            -1.23996
          ],
          [
            -58.40646666666667,
            0.5611133333333331
          ],
          [
            -55.74413333333333,
            2.3621866666666644
          ],
          [
            -53.0818,
            4.163259999999999
          ],
          [
            -50.419466666666665,
            5.964333333333331
          ],
          [
            -47.75713333333333,
            7.765406666666662
          ],
          [
            -45.09479999999999,
            9.56648
          ],
          [
            -42.43246666666666,
            11.367553333333332
          ],
          [
            -39.770133333333334,
            13.168626666666666
          ],
          [
            -37.1078,
            14.969699999999998
          ],
          [
            -34.44546666666666,
            16.77077333333333
          ],
          [
            -31.783133333333332,
            18.571846666666666
          ],
          [
            -29.120799999999996,
            20.37292
          ],
          [
            -26.458466666666666,
            22.17399333333333
          ],
          [
            -23.79613333333333,
            23.975066666666663
          ],
          [
            -21.1338,
            25.776139999999998
          ],
          [
            -18.471466666666664,
            27.577213333333326
          ],
          [
            -15.809133333333328,
            29.378286666666668
          ],
          [
            -13.146799999999992,
            31.179360000000003
          ],
          [
            -10.484466666666663,
            32.98043333333333
          ],
          [
            -7.822133333333326,
            34.781506666666665
          ],
          [
            -5.15979999999999,
            36.58258
          ],
          [
            -2.497466666666668,
            38.383653333333335
          ],
          [
            0.1648666666666685,
            40.18472666666666
          ],
          [
            2.827200000000005,
            41.9858
          ]
        ]
      },
      "properties": {
        "from": "Lima, Perú",
        "to": "Gerona, España",
        "dist_km": 10082.4
      }
    },
    {
      "type": "Feature",
      "geometry": {
        "type": "LineString",
        "coordinates": [
          [
            -77.0428,
            -12.0464
          ],
          [
            -76.42098333333334,
            -12.798356666666667
          ],
          [
            -75.79916666666666,
            -13.550313333333333
          ],
          [
            -75.17735,
            -14.30227
          ],
          [
            -74.55553333333333,
            -15.054226666666667
          ],
          [
            -73.93371666666667,
            -15.806183333333333
          ],
          [
            -73.3119,
            -16.55814
          ],
          [
            -72.69008333333333,
            -17.310096666666666
          ],
          [
            -72.06826666666667,
            -18.062053333333335
          ],
          [
            -71.44645,
            -18.81401
          ],
          [
            -70.82463333333334,
            -19.565966666666668
          ],
          [
            -70.20281666666666,
            -20.317923333333333
          ],
          [
            -69.581,
            -21.06988
          ],
          [
            -68.95918333333333,
            -21.82183666666667
          ],
          [
            -68.33736666666667,
            -22.573793333333334
          ],
          [
            -67.71555000000001,
            -23.32575
          ],
          [
            -67.09373333333333,
            -24.077706666666668
          ],
          [
            -66.47191666666667,
            -24.829663333333336
          ],
          [
            -65.8501,
            -25.58162
          ],
          [
            -65.22828333333334,
            -26.333576666666666
          ],
          [
            -64.60646666666666,
            -27.085533333333334
          ],
          [
            -63.98465,
            -27.837490000000003
          ],
          [
            -63.362833333333334,
            -28.589446666666667
          ],
          [
            -62.74101666666667,
            -29.34140333333334
          ],
          [
            -62.1192,
            -30.093360000000004
          ],
          [
            -61.49738333333333,
            -30.84531666666667
          ],
          [
            -60.87556666666667,
            -31.597273333333334
          ],
          [
            -60.25375,
            -32.349230000000006
          ],
          [
            -59.631933333333336,
            -33.10118666666667
          ],
          [
            -59.01011666666667,
            -33.853143333333335
          ],
          [
            -58.3883,
            -34.6051
          ]
        ]
      },
      "properties": {
        "from": "Lima, Perú",
        "to": "Buenos Aires, Argentina",
        "dist_km": 3137.1
      }
    },
    {
      "type": "Feature",
      "geometry": {
        "type": "LineString",
        "coordinates": [
          [
            -77.0428,
            -12.0464
          ],
          [
            -77.13657666666667,
            -10.202826666666667
          ],
          [
            -77.23035333333333,
            -8.359253333333333
          ],
          [
            -77.32413,
            -6.51568
          ],
          [
            -77.41790666666667,
            -4.672106666666667
          ],
          [
            -77.51168333333334,
            -2.8285333333333345
          ],
          [
            -77.60546,
            -0.9849599999999992
          ],
          [
            -77.69923666666666,
            0.8586133333333343
          ],
          [
            -77.79301333333333,
            2.702186666666666
          ],
          [
            -77.88679,
            4.54576
          ],
          [
            -77.98056666666666,
            6.389333333333331
          ],
          [
            -78.07434333333333,
            8.232906666666667
          ],
          [
            -78.16812,
            10.076480000000002
          ],
          [
            -78.26189666666667,
            11.920053333333334
          ],
          [
            -78.35567333333333,
            13.763626666666669
          ],
          [
            -78.44945,
            15.6072
          ],
          [
            -78.54322666666667,
            17.45077333333333
          ],
          [
            -78.63700333333333,
            19.29434666666667
          ],
          [
            -78.73078,
            21.13792
          ],
          [
            -78.82455666666667,
            22.981493333333333
          ],
          [
            -78.91833333333334,
            24.825066666666665
          ],
          [
            -79.01210999999999,
            26.668640000000003
          ],
          [
            -79.10588666666666,
            28.512213333333335
          ],
          [
            -79.19966333333333,
            30.355786666666674
          ],
          [
            -79.29344,
            32.199360000000006
          ],
          [
            -79.38721666666666,
            34.04293333333334
          ],
          [
            -79.48099333333333,
            35.88650666666667
          ],
          [
            -79.57477,
            37.73008
          ],
          [
            -79.66854666666667,
            39.57365333333334
          ],
          [
            -79.76232333333333,
            41.41722666666667
          ],
          [
            -79.8561,
            43.2608
          ]
        ]
      },
      "properties": {
        "from": "Lima, Perú",
        "to": "Hamilton, Ontario, Canadá",
        "dist_km": 6156.5
      }
    },
    {
      "type": "Feature",
      "geometry": {
        "type": "LineString",
        "coordinates": [
          [
            -77.0428,
            -12.0464
          ],
          [
            -77.09111333333334,
            -11.65185
          ],
          [
            -77.13942666666667,
            -11.2573
          ],
          [
            -77.18774,
            -10.86275
          ],
          [
            -77.23605333333333,
            -10.4682
          ],
          [
            -77.28436666666667,
            -10.07365
          ],
          [
            -77.33268,
            -9.6791
          ],
          [
            -77.38099333333334,
            -9.28455
          ],
          [
            -77.42930666666666,
            -8.89
          ],
          [
            -77.47762,
            -8.49545
          ],
          [
            -77.52593333333333,
            -8.1009
          ],
          [
            -77.57424666666667,
            -7.7063500000000005
          ],
          [
            -77.62256,
            -7.3118
          ],
          [
            -77.67087333333333,
            -6.917249999999999
          ],
          [
            -77.71918666666666,
            -6.5226999999999995
          ],
          [
            -77.7675,
            -6.12815
          ],
          [
            -77.81581333333334,
            -5.7336
          ],
          [
            -77.86412666666666,
            -5.33905
          ],
          [
            -77.91244,
            -4.9445
          ],
          [
            -77.96075333333333,
            -4.54995
          ],
          [
            -78.00906666666667,
            -4.1554
          ],
          [
            -78.05738,
            -3.7608499999999996
          ],
          [
            -78.10569333333333,
            -3.3663000000000007
          ],
          [
            -78.15400666666666,
            -2.9717499999999983
          ],
          [
            -78.20232,
            -2.5771999999999995
          ],
          [
            -78.25063333333333,
            -2.182649999999999
          ],
          [
            -78.29894666666667,
            -1.7880999999999982
          ],
          [
            -78.34725999999999,
            -1.3935499999999994
          ],
          [
            -78.39557333333333,
            -0.9989999999999988
          ],
          [
            -78.44388666666666,
            -0.6044499999999999
          ],
          [
            -78.4922,
            -0.2098999999999993
          ]
        ]
      },
      "properties": {
        "from": "Lima, Perú",
        "to": "Quito, Ecuador",
        "dist_km": 1325.8
      }
    },
    {
      "type": "Feature",
      "geometry": {
        "type": "LineString",
        "coordinates": [
          [
            -77.0428,
            -12.0464
          ],
          [
            -73.77414333333333,
            -9.90354
          ],
          [
            -70.50548666666667,
            -7.76068
          ],
          [
            -67.23683,
            -5.617819999999999
          ],
          [
            -63.96817333333333,
            -3.4749599999999994
          ],
          [
            -60.69951666666667,
            -1.3320999999999987
          ],
          [
            -57.430859999999996,
            0.8107600000000019
          ],
          [
            -54.16220333333334,
            2.9536200000000026
          ],
          [
            -50.893546666666666,
            5.0964800000000015
          ],
          [
            -47.62489000000001,
            7.23934
          ],
          [
            -44.356233333333336,
            9.382200000000003
          ],
          [
            -41.08757666666667,
            11.525060000000002
          ],
          [
            -37.81892,
            13.667920000000004
          ],
          [
            -34.55026333333333,
            15.810780000000003
          ],
          [
            -31.28160666666667,
            17.953640000000007
          ],
          [
            -28.012950000000004,
            20.096500000000006
          ],
          [
            -24.74429333333334,
            22.239360000000005
          ],
          [
            -21.475636666666674,
            24.382220000000004
          ],
          [
            -18.20698000000001,
            26.525080000000003
          ],
          [
            -14.938323333333344,
            28.66794000000001
          ],
          [
            -11.669666666666672,
            30.810800000000008
          ],
          [
            -8.401010000000014,
            32.953660000000006
          ],
          [
            -5.1323533333333415,
            35.096520000000005
          ],
          [
            -1.8636966666666694,
            37.23938000000001
          ],
          [
            1.4049600000000027,
            39.38224000000001
          ],
          [
            4.6736166666666605,
            41.52510000000001
          ],
          [
            7.942273333333333,
            43.66796000000001
          ],
          [
            11.21092999999999,
            45.810820000000014
          ],
          [
            14.479586666666663,
            47.95368000000001
          ],
          [
            17.74824333333332,
            50.09654000000001
          ],
          [
            21.016899999999993,
            52.23940000000001
          ]
        ]
      },
      "properties": {
        "from": "Lima, Perú",
        "to": "Varsovia, Polonia",
        "dist_km": 11610.5
      }
    },
    {
      "type": "Feature",
      "geometry": {
        "type": "LineString",
        "coordinates": [
          [
            -77.0428,
            -12.0464
          ],
          [
            -74.59816666666667,
            -10.297626666666666
          ],
          [
            -72.15353333333333,
            -8.548853333333334
          ],
          [
            -69.7089,
            -6.8000799999999995
          ],
          [
            -67.26426666666667,
            -5.051306666666667
          ],
          [
            -64.81963333333333,
            -3.3025333333333347
          ],
          [
            -62.375,
            -1.5537599999999987
          ],
          [
            -59.93036666666667,
            0.1950133333333337
          ],
          [
            -57.48573333333333,
            1.943786666666666
          ],
          [
            -55.0411,
            3.6925599999999985
          ],
          [
            -52.59646666666667,
            5.441333333333331
          ],
          [
            -50.151833333333336,
            7.190106666666667
          ],
          [
            -47.7072,
            8.938880000000003
          ],
          [
            -45.262566666666665,
            10.687653333333335
          ],
          [
            -42.817933333333336,
            12.436426666666668
          ],
          [
            -40.3733,
            14.1852
          ],
          [
            -37.928666666666665,
            15.933973333333332
          ],
          [
            -35.484033333333336,
            17.682746666666667
          ],
          [
            -33.0394,
            19.43152
          ],
          [
            -30.594766666666672,
            21.18029333333333
          ],
          [
            -28.150133333333336,
            22.929066666666664
          ],
          [
            -25.7055,
            24.677839999999996
          ],
          [
            -23.260866666666672,
            26.426613333333336
          ],
          [
            -20.81623333333333,
            28.175386666666668
          ],
          [
            -18.3716,
            29.924160000000008
          ],
          [
            -15.926966666666665,
            31.67293333333334
          ],
          [
            -13.48233333333333,
            33.42170666666667
          ],
          [
            -11.037700000000001,
            35.170480000000005
          ],
          [
            -8.593066666666672,
            36.91925333333334
          ],
          [
            -6.14843333333333,
            38.66802666666667
          ],
          [
            -3.703800000000001,
            40.4168
          ]
        ]
      },
      "properties": {
        "from": "Lima, Perú",
        "to": "España",
        "dist_km": 9509.0
      }
    }
  ]
}